OSCAR 7 (AO-7)          
1 07530U 74089B   26161.28179582 -.00000033  00000+0  84573-4 0  9998
2 07530 101.9901 174.4563 0012501 142.9960 284.8697 12.53697951359658
PHASE 3B (AO-10)        
1 14129U 83058B   26158.17238870 -.00000194  00000+0  00000+0 0  9992
2 14129  25.9048 221.2242 6014266 112.9115 319.2048  2.05872980295281
UOSAT 2 (UO-11)         
1 14781U 84021B   26161.17371193  .00001160  00000+0  12370-3 0  9997
2 14781  97.8055 126.8269 0006980 196.0557 164.0441 14.90765931256083
LUSAT (LO-19)           
1 20442U 90005G   26161.27485573  .00000098  00000+0  51817-4 0  9995
2 20442  98.8852 182.8898 0010763 222.5115 137.5236 14.34121055901400
EYESAT A (AO-27)        
1 22825U 93061C   26161.14733136  .00000077  00000+0  46307-4 0  9999
2 22825  98.6880 228.5632 0009426 118.0605 242.1532 14.30940402705996
ITAMSAT (IO-26)         
1 22826U 93061D   26160.91913404  .00000078  00000+0  46308-4 0  9994
2 22826  98.6830 228.2517 0010049 103.8497 256.3805 14.31366980706271
RADIO ROSTO (RS15)      
1 23439U 94085A   26161.10954336 -.00000037  00000+0  14462-3 0  9994
2 23439  64.8187 314.6628 0155732   5.1852 355.0642 11.27583633295102
JAS-2 (FO-29)           
1 24278U 96046B   26161.28730356  .00000002  00000+0  34886-4 0  9992
2 24278  98.5246  11.1047 0350802 114.2893 249.5306 13.53273805472233
TECHSAT 1B (GO-32)      
1 25397U 98043D   26160.96984413  .00000058  00000+0  45251-4 0  9992
2 25397  99.0065 153.5465 0000643 181.5466 178.5710 14.24427022450309
ISS (ZARYA)             
1 25544U 98067A   26161.15832933  .00007673  00000+0  14376-3 0  9996
2 25544  51.6328 334.8807 0006746 152.8443 207.2900 15.49693861570666
PCSAT (NO-44)           
1 26931U 01043C   26161.03507967  .00000075  00000+0  59020-4 0  9993
2 26931  67.0511 262.7700 0006102 264.3538  95.6869 14.31953587289421
SAUDISAT 1C (SO-50)     
1 27607U 02058C   26160.67027096  .00000963  00000+0  13085-3 0  9996
2 27607  64.5504 152.2423 0075428 263.8699  95.3809 14.83030513263346
CUTE-1 (CO-55)          
1 27844U 03031E   26161.29335645  .00000255  00000+0  12935-3 0  9999
2 27844  98.6735 169.9388 0009062 198.4654 161.6197 14.24331486190695
CUBESAT XI-IV (CO-57)   
1 27848U 03031J   26161.27835744  .00000213  00000+0  11264-3 0  9994
2 27848  98.6767 169.6423 0008624 218.4782 141.5782 14.23617138190393
MOZHAETS 4 (RS22)       
1 27939U 03042A   26161.30777875  .00000754  00000+0  12448-3 0  9996
2 27939  98.3476 345.4724 0010106 294.2400 245.0545 14.73454760214538
CUBESAT XI-V            
1 28895U 05043F   26160.38487946  .00001300  00000+0  21228-3 0  9999
2 28895  98.2976 315.8433 0013165 226.6554 133.3557 14.72610450100602
CUTE-1.7+APD II (CO-65) 
1 32785U 08021C   26161.22182481  .00005114  00000+0  32387-3 0  9996
2 32785  97.8272 142.4955 0010331  59.3713 300.8533 15.09387299984149
SEEDS II (CO-66)        
1 32791U 08021J   26160.95377475  .00017862  00000+0  57103-3 0  9997
2 32791  97.7518 158.5073 0002176  26.7954 333.3399 15.32504530986182
YUBILEINY (RS30)        
1 32953U 08025A   26161.25782866  .00000010  00000+0  25795-5 0  9990
2 32953  82.5050 359.7516 0019139 329.4928  30.5037 12.43178836818839
KKS-1 (KISEKI)          
1 33499U 09002H   26161.17261176  .00001194  00000+0  15343-3 0  9999
2 33499  98.1193  83.5038 0006940 322.3486  37.7241 14.83105969935158
SWISSCUBE               
1 35932U 09051B   26160.71112973  .00000922  00000+0  19187-3 0  9994
2 35932  98.4042  68.4691 0005562 230.1201 129.9511 14.62467613888060
BEESAT-1                
1 35933U 09051C   26160.99049480  .00000728  00000+0  15600-3 0  9997
2 35933  98.3972  68.4038 0003926 245.5037 114.5754 14.61708937888139
ITUPSAT1                
1 35935U 09051E   26160.97508610  .00000673  00000+0  14898-3 0  9999
2 35935  98.4056  67.5878 0006124 261.1078  98.9428 14.60430038887684
XIWANG-1 (HOPE-1)       
1 36122U 09072B   26161.25196369 -.00000233  00000+0 -49508-3 0  9997
2 36122 100.4021 115.1947 0006803 249.1811 110.8574 13.16437827792090
O/OREOS (USA 219)       
1 37224U 10062C   26161.16427526  .00002115  00000+0  20540-3 0  9998
2 37224  71.9705  96.2464 0012400  78.4284 281.8278 14.93714320115591
JUGNU                   
1 37839U 11058B   26161.25711562  .00000399  00000+0  69141-4 0  9995
2 37839  19.9621 350.5295 0018561 359.9630 156.5973 14.13774890758049
SRMSAT                  
1 37841U 11058D   26161.14545056  .00000359  00000+0  51119-4 0  9991
2 37841  19.9712 102.0891 0011931 126.5108 263.2638 14.11574082756824
STRAND-1                
1 39090U 13009E   26161.23306515  .00000258  00000+0  10110-3 0  9995
2 39090  98.3921 341.6387 0007466 249.0407 110.9981 14.37159178696068
ZACUBE-1 (TSHEPISOSAT)  
1 39417U 13066B   26161.14175542  .00003283  00000+0  25692-3 0  9997
2 39417  97.8088 123.4403 0040113 272.4357  87.2274 15.01145439679670
GOMX-1                  
1 39430U 13066Q   26161.30846759  .00001449  00000+0  22233-3 0  9995
2 39430  97.6495   2.2054 0130160  99.3688 262.2261 14.69432909668905
